GLOBALSTAR M063         
1 26081U 00008A   24231.23477885 -.00000081  00000+0  18109-4 0  9993
2 26081  51.9930 189.4315 0004575  88.2267  50.0444 11.86160013121627
GLOBALSTAR M062         
1 26082U 00008B   24231.24386123 -.00000018  00000+0  57666-3 0  9999
2 26082  51.9831 266.6352 0007226 184.7308 250.0728 12.43442962458935
GLOBALSTAR M060         
1 26083U 00008C   24231.26327740 -.00000125  00000+0 -34104-3 0  9994
2 26083  52.0000 183.7265 0003144 233.7033 274.0958 12.17639309115466
GLOBALSTAR M064         
1 26084U 00008D   24231.21561535 -.00000052  00000+0  44616-3 0  9999
2 26084  52.0030 291.8872 0001704 183.3503 176.7318 11.88521207131186
GLOBALSTAR M065         
1 31571U 07020A   24230.98256926 -.00000122  00000+0 -10279-3 0  9992
2 31571  51.9897  69.1022 0010239 359.9271 146.7525 12.61975106795424
GLOBALSTAR M069         
1 31573U 07020C   24231.41091258 -.00000069  00000+0  19157-3 0  9991
2 31573  51.9968  23.5478 0000984 106.3475 278.3655 12.62246220796246
GLOBALSTAR M072         
1 31574U 07020D   24231.20255836 -.00000091  00000+0  72583-4 0  9991
2 31574  52.0076 120.1779 0001019  43.6149 132.2984 12.62261763794552
GLOBALSTAR M071         
1 31576U 07020F   24230.83117898 -.00000073  00000+0  16943-3 0  9993
2 31576  52.0082  30.5262 0001325 123.0096  26.0455 12.62272610457424
